STARLINK-35964          
1 66796U 25278F   25355.55789487  .00475568  00000+0  22393-2 0  9996
2 66796  42.9910 196.9423 0003237 313.0564  47.0036 15.81029025  3244
STARLINK-36099          
1 66797U 25278G   25355.58335648 -.01996758  00000+0 -29874-1 0  9998
2 66797  42.9995 198.5333 0001268 259.7306 274.3959 15.57728062  4439
STARLINK-36041          
1 66798U 25278H   25355.58335648 -.02035337  00000+0 -29886-1 0  9990
2 66798  42.9991 198.5274 0001174 261.0585 274.9825 15.57730838  4220
STARLINK-36044          
1 66799U 25278J   25355.58335648 -.01994297  00000+0 -29832-1 0  9990
2 66799  42.9994 198.5235 0001216 261.0158 276.9428 15.57728389  4380
STARLINK-35996          
1 66800U 25278K   25355.58335648 -.01993734  00000+0 -29824-1 0  9999
2 66800  42.9991 198.5133 0001172 260.5883 281.2054 15.57727783  4175
STARLINK-36080          
1 66801U 25278L   25355.58335648 -.01995088  00000+0 -29845-1 0  9997
2 66801  42.9993 198.4879 0001181 257.8900 293.4882 15.57729078  4389
STARLINK-35604          
1 66802U 25278M   25355.58335648 -.01994461  00000+0 -29835-1 0  9991
2 66802  42.9991 198.5176 0001139 263.5510 276.3244 15.57729211  4384
STARLINK-35565          
1 66803U 25278N   25355.58335648 -.02036721  00000+0 -29907-1 0  9999
2 66803  42.9990 198.5076 0001228 258.5672 285.1408 15.57732103  4468
STARLINK-36038          
1 66804U 25278P   25355.58335648 -.01991444  00000+0 -29784-1 0  9994
2 66804  42.9993 198.5037 0001259 256.6086 289.0172 15.57727011  4385
STARLINK-36049          
1 66805U 25278Q   25355.58335648 -.01992946  00000+0 -29811-1 0  9994
2 66805  42.9993 198.4930 0001204 257.9701 291.4923 15.57726762  4388
STARLINK-36069          
1 66806U 25278R   25355.58335648 -.01990535  00000+0 -29771-1 0  9992
2 66806  42.9992 198.4977 0001144 260.2666 287.2789 15.57725956  4173
STARLINK-36000          
1 66807U 25278S   25355.58335648 -.01990380  00000+0 -29768-1 0  9997
2 66807  42.9995 198.4844 0001199 257.5408 295.7548 15.57725939  4430
