CCSDS_OMM_VERS = 2.0
CREATION_DATE  = 
ORIGINATOR     = 

OBJECT_NAME    = STARLINK-35964
OBJECT_ID      = 2025-278F
CENTER_NAME    = EARTH
REF_FRAME      = TEME
TIME_SYSTEM    = UTC
MEAN_ELEMENT_THEORY = SGP/SGP4

EPOCH          = 2025-12-21T13:23:22.116768
MEAN_MOTION    = 15.81029025
ECCENTRICITY   = .00032371
INCLINATION    = 42.9910
RA_OF_ASC_NODE = 196.9423
ARG_OF_PERICENTER = 313.0564
MEAN_ANOMALY   = 47.0036

EPHEMERIS_TYPE = 0
CLASSIFICATION_TYPE = U
NORAD_CAT_ID   = 66796
ELEMENT_SET_NO = 999
REV_AT_EPOCH   = 324
BSTAR          = .22392892E-2
MEAN_MOTION_DOT = .475568E-2
MEAN_MOTION_DDOT = 0

CCSDS_OMM_VERS = 2.0
CREATION_DATE  = 
ORIGINATOR     = 

OBJECT_NAME    = STARLINK-36099
OBJECT_ID      = 2025-278G
CENTER_NAME    = EARTH
REF_FRAME      = TEME
TIME_SYSTEM    = UTC
MEAN_ELEMENT_THEORY = SGP/SGP4

EPOCH          = 2025-12-21T14:00:01.999872
MEAN_MOTION    = 15.57728062
ECCENTRICITY   = .00012681
INCLINATION    = 42.9995
RA_OF_ASC_NODE = 198.5333
ARG_OF_PERICENTER = 259.7306
MEAN_ANOMALY   = 274.3959

EPHEMERIS_TYPE = 0
CLASSIFICATION_TYPE = U
NORAD_CAT_ID   = 66797
ELEMENT_SET_NO = 999
REV_AT_EPOCH   = 443
BSTAR          = -.2987381E-1
MEAN_MOTION_DOT = -.1996758E-1
MEAN_MOTION_DDOT = 0

CCSDS_OMM_VERS = 2.0
CREATION_DATE  = 
ORIGINATOR     = 

OBJECT_NAME    = STARLINK-36041
OBJECT_ID      = 2025-278H
CENTER_NAME    = EARTH
REF_FRAME      = TEME
TIME_SYSTEM    = UTC
MEAN_ELEMENT_THEORY = SGP/SGP4

EPOCH          = 2025-12-21T14:00:01.999872
MEAN_MOTION    = 15.57730838
ECCENTRICITY   = .00011745
INCLINATION    = 42.9991
RA_OF_ASC_NODE = 198.5274
ARG_OF_PERICENTER = 261.0585
MEAN_ANOMALY   = 274.9825

EPHEMERIS_TYPE = 0
CLASSIFICATION_TYPE = U
NORAD_CAT_ID   = 66798
ELEMENT_SET_NO = 999
REV_AT_EPOCH   = 422
BSTAR          = -.2988611E-1
MEAN_MOTION_DOT = -.2035337E-1
MEAN_MOTION_DDOT = 0

CCSDS_OMM_VERS = 2.0
CREATION_DATE  = 
ORIGINATOR     = 

OBJECT_NAME    = STARLINK-36044
OBJECT_ID      = 2025-278J
CENTER_NAME    = EARTH
REF_FRAME      = TEME
TIME_SYSTEM    = UTC
MEAN_ELEMENT_THEORY = SGP/SGP4

EPOCH          = 2025-12-21T14:00:01.999872
MEAN_MOTION    = 15.57728389
ECCENTRICITY   = .00012168
INCLINATION    = 42.9994
RA_OF_ASC_NODE = 198.5235
ARG_OF_PERICENTER = 261.0158
MEAN_ANOMALY   = 276.9428

EPHEMERIS_TYPE = 0
CLASSIFICATION_TYPE = U
NORAD_CAT_ID   = 66799
ELEMENT_SET_NO = 999
REV_AT_EPOCH   = 438
BSTAR          = -.29831972E-1
MEAN_MOTION_DOT = -.1994297E-1
MEAN_MOTION_DDOT = 0

CCSDS_OMM_VERS = 2.0
CREATION_DATE  = 
ORIGINATOR     = 

OBJECT_NAME    = STARLINK-35996
OBJECT_ID      = 2025-278K
CENTER_NAME    = EARTH
REF_FRAME      = TEME
TIME_SYSTEM    = UTC
MEAN_ELEMENT_THEORY = SGP/SGP4

EPOCH          = 2025-12-21T14:00:01.999872
MEAN_MOTION    = 15.57727783
ECCENTRICITY   = .00011722
INCLINATION    = 42.9991
RA_OF_ASC_NODE = 198.5133
ARG_OF_PERICENTER = 260.5883
MEAN_ANOMALY   = 281.2054

EPHEMERIS_TYPE = 0
CLASSIFICATION_TYPE = U
NORAD_CAT_ID   = 66800
ELEMENT_SET_NO = 999
REV_AT_EPOCH   = 417
BSTAR          = -.29823566E-1
MEAN_MOTION_DOT = -.1993734E-1
MEAN_MOTION_DDOT = 0

CCSDS_OMM_VERS = 2.0
CREATION_DATE  = 
ORIGINATOR     = 

OBJECT_NAME    = STARLINK-36080
OBJECT_ID      = 2025-278L
CENTER_NAME    = EARTH
REF_FRAME      = TEME
TIME_SYSTEM    = UTC
MEAN_ELEMENT_THEORY = SGP/SGP4

EPOCH          = 2025-12-21T14:00:01.999872
MEAN_MOTION    = 15.57729078
ECCENTRICITY   = .00011819
INCLINATION    = 42.9993
RA_OF_ASC_NODE = 198.4879
ARG_OF_PERICENTER = 257.8900
MEAN_ANOMALY   = 293.4882

EPHEMERIS_TYPE = 0
CLASSIFICATION_TYPE = U
NORAD_CAT_ID   = 66801
ELEMENT_SET_NO = 999
REV_AT_EPOCH   = 438
BSTAR          = -.29845128E-1
MEAN_MOTION_DOT = -.1995088E-1
MEAN_MOTION_DDOT = 0

CCSDS_OMM_VERS = 2.0
CREATION_DATE  = 
ORIGINATOR     = 

OBJECT_NAME    = STARLINK-35604
OBJECT_ID      = 2025-278M
CENTER_NAME    = EARTH
REF_FRAME      = TEME
TIME_SYSTEM    = UTC
MEAN_ELEMENT_THEORY = SGP/SGP4

EPOCH          = 2025-12-21T14:00:01.999872
MEAN_MOTION    = 15.57729211
ECCENTRICITY   = .00011394
INCLINATION    = 42.9991
RA_OF_ASC_NODE = 198.5176
ARG_OF_PERICENTER = 263.5510
MEAN_ANOMALY   = 276.3244

EPHEMERIS_TYPE = 0
CLASSIFICATION_TYPE = U
NORAD_CAT_ID   = 66802
ELEMENT_SET_NO = 999
REV_AT_EPOCH   = 438
BSTAR          = -.29834756E-1
MEAN_MOTION_DOT = -.1994461E-1
MEAN_MOTION_DDOT = 0

CCSDS_OMM_VERS = 2.0
CREATION_DATE  = 
ORIGINATOR     = 

OBJECT_NAME    = STARLINK-35565
OBJECT_ID      = 2025-278N
CENTER_NAME    = EARTH
REF_FRAME      = TEME
TIME_SYSTEM    = UTC
MEAN_ELEMENT_THEORY = SGP/SGP4

EPOCH          = 2025-12-21T14:00:01.999872
MEAN_MOTION    = 15.57732103
ECCENTRICITY   = .0001228
INCLINATION    = 42.9990
RA_OF_ASC_NODE = 198.5076
ARG_OF_PERICENTER = 258.5672
MEAN_ANOMALY   = 285.1408

EPHEMERIS_TYPE = 0
CLASSIFICATION_TYPE = U
NORAD_CAT_ID   = 66803
ELEMENT_SET_NO = 999
REV_AT_EPOCH   = 446
BSTAR          = -.29906862E-1
MEAN_MOTION_DOT = -.2036721E-1
MEAN_MOTION_DDOT = 0

CCSDS_OMM_VERS = 2.0
CREATION_DATE  = 
ORIGINATOR     = 

OBJECT_NAME    = STARLINK-36038
OBJECT_ID      = 2025-278P
CENTER_NAME    = EARTH
REF_FRAME      = TEME
TIME_SYSTEM    = UTC
MEAN_ELEMENT_THEORY = SGP/SGP4

EPOCH          = 2025-12-21T14:00:01.999872
MEAN_MOTION    = 15.57727011
ECCENTRICITY   = .0001259
INCLINATION    = 42.9993
RA_OF_ASC_NODE = 198.5037
ARG_OF_PERICENTER = 256.6086
MEAN_ANOMALY   = 289.0172

EPHEMERIS_TYPE = 0
CLASSIFICATION_TYPE = U
NORAD_CAT_ID   = 66804
ELEMENT_SET_NO = 999
REV_AT_EPOCH   = 438
BSTAR          = -.29784257E-1
MEAN_MOTION_DOT = -.1991444E-1
MEAN_MOTION_DDOT = 0

CCSDS_OMM_VERS = 2.0
CREATION_DATE  = 
ORIGINATOR     = 

OBJECT_NAME    = STARLINK-36049
OBJECT_ID      = 2025-278Q
CENTER_NAME    = EARTH
REF_FRAME      = TEME
TIME_SYSTEM    = UTC
MEAN_ELEMENT_THEORY = SGP/SGP4

EPOCH          = 2025-12-21T14:00:01.999872
MEAN_MOTION    = 15.57726762
ECCENTRICITY   = .00012044
INCLINATION    = 42.9993
RA_OF_ASC_NODE = 198.4930
ARG_OF_PERICENTER = 257.9701
MEAN_ANOMALY   = 291.4923

EPHEMERIS_TYPE = 0
CLASSIFICATION_TYPE = U
NORAD_CAT_ID   = 66805
ELEMENT_SET_NO = 999
REV_AT_EPOCH   = 438
BSTAR          = -.29810858E-1
MEAN_MOTION_DOT = -.1992946E-1
MEAN_MOTION_DDOT = 0

CCSDS_OMM_VERS = 2.0
CREATION_DATE  = 
ORIGINATOR     = 

OBJECT_NAME    = STARLINK-36069
OBJECT_ID      = 2025-278R
CENTER_NAME    = EARTH
REF_FRAME      = TEME
TIME_SYSTEM    = UTC
MEAN_ELEMENT_THEORY = SGP/SGP4

EPOCH          = 2025-12-21T14:00:01.999872
MEAN_MOTION    = 15.57725956
ECCENTRICITY   = .0001144
INCLINATION    = 42.9992
RA_OF_ASC_NODE = 198.4977
ARG_OF_PERICENTER = 260.2666
MEAN_ANOMALY   = 287.2789

EPHEMERIS_TYPE = 0
CLASSIFICATION_TYPE = U
NORAD_CAT_ID   = 66806
ELEMENT_SET_NO = 999
REV_AT_EPOCH   = 417
BSTAR          = -.29771291E-1
MEAN_MOTION_DOT = -.1990535E-1
MEAN_MOTION_DDOT = 0

CCSDS_OMM_VERS = 2.0
CREATION_DATE  = 
ORIGINATOR     = 

OBJECT_NAME    = STARLINK-36000
OBJECT_ID      = 2025-278S
CENTER_NAME    = EARTH
REF_FRAME      = TEME
TIME_SYSTEM    = UTC
MEAN_ELEMENT_THEORY = SGP/SGP4

EPOCH          = 2025-12-21T14:00:01.999872
MEAN_MOTION    = 15.57725939
ECCENTRICITY   = .00011996
INCLINATION    = 42.9995
RA_OF_ASC_NODE = 198.4844
ARG_OF_PERICENTER = 257.5408
MEAN_ANOMALY   = 295.7548

EPHEMERIS_TYPE = 0
CLASSIFICATION_TYPE = U
NORAD_CAT_ID   = 66807
ELEMENT_SET_NO = 999
REV_AT_EPOCH   = 443
BSTAR          = -.29768001E-1
MEAN_MOTION_DOT = -.199038E-1
MEAN_MOTION_DDOT = 0

